{"type":"FeatureCollection","features":[{"type":"Feature","properties":{"name":"Groene Hart"},"geometry":{"type":"Polygon","coordinates":[[[4.87531802623732,51.93799131625661],[4.835538876051224,51.94006663519621],[4.810318660290713,51.924169854192336],[4.763946999024796,51.91498097484853],[4.7219355914606815,51.897260383775325],[4.669854616836507,51.8897763296041],[4.618664003531931,51.88962780627993],[4.576329070816499,51.90303147074018],[4.643019573216195,51.91256878121096],[4.61902801582997,51.92958106376636],[4.619488886274319,51.933492038490485],[4.583992173733793,51.96536906246077],[4.601807910732541,51.97214023569865],[4.593768462647613,51.976000346795196],[4.598772513822521,51.98796882820787],[4.59436695053405,51.994281810208776],[4.578935245229195,51.98987009730728],[4.578918055167229,51.98113439573211],[4.570229498425145,51.979030288162654],[4.573529043849292,51.97457628313158],[4.578999444492475,51.975787360928244],[4.574362967570449,51.97287636558222],[4.5565590960038715,51.968455359160494],[4.547685955789128,51.9728067908713],[4.553760163789341,51.977041300249404],[4.546338787926777,51.991514386212415],[4.563456601226951,52.03577720643827],[4.565200992178393,52.058496414572694],[4.533694635619672,52.07305129020545],[4.536047084268899,52.076928256339585],[4.530103252162325,52.080082273594755],[4.537134418314553,52.08394614413406],[4.535322665296664,52.12043276308116],[4.541905174108696,52.118660464722595],[4.549173912122061,52.137617146522466],[4.560121148979458,52.131903618157345],[4.570467140438941,52.14285855462697],[4.57148053751289,52.15310938941344],[4.561633481584137,52.16081947549498],[4.562399383116196,52.16611929995556],[4.550933666270405,52.16330679541995],[4.5381471711380375,52.18011333116822],[4.546767060957499,52.19897607842552],[4.557154621397356,52.1977423998367],[4.5617040928873935,52.20365812426255],[4.554291545553014,52.21224735940604],[4.558432520204699,52.21879899631679],[4.619637126279653,52.214578787440104],[4.670347535106551,52.230756173267665],[4.685062039187189,52.22644539023094],[4.704875645205485,52.233813930070795],[4.724154341635759,52.232371756118276],[4.724296283390763,52.213053489815465],[4.734338709155913,52.20651684825866],[4.7434787357785115,52.21472503371942],[4.7620745529082775,52.218130735899926],[4.780985909367457,52.22874171847956],[4.813514308091558,52.22713735904866],[4.830107603007519,52.230913176228036],[4.851211534384028,52.23870390463528],[4.857369050514205,52.24761514588085],[4.87003669481833,52.25336176740548],[4.910804872325003,52.25261441969231],[4.929421140500164,52.26840380190632],[4.926443898846171,52.27977995768436],[4.967673406600203,52.27958265908199],[4.98350488231118,52.29036845220837],[4.99747430897607,52.28911867895273],[5.011993983870385,52.303456863762186],[5.021542170961115,52.302457121846565],[5.024380568474645,52.28135780220263],[5.030527391122722,52.28848750609616],[5.042777672527411,52.28248848470782],[5.050403400176091,52.287872303193716],[5.06329686000702,52.287183270347306],[5.065900358945397,52.28054996286211],[5.0605588320375166,52.28517641786381],[5.048600769880231,52.27702997390285],[5.023019706685731,52.27284806792775],[5.031802786887481,52.2551768353306],[5.042942437261713,52.255977375545385],[5.04585334281687,52.24338210524982],[5.057729179109826,52.23535327445696],[5.041584810422023,52.2308887278385],[5.037101078707606,52.22534216119448],[5.042794990052191,52.22404002355619],[5.036664910918692,52.22436066769395],[5.0334001107168005,52.209836743724246],[5.036649547925366,52.20213848806451],[5.021292591905192,52.20188624665069],[5.037200782782278,52.19794955647202],[5.032503126412675,52.18411387027326],[5.04204922489296,52.18337046916174],[5.046421077076261,52.16592937972334],[5.115293620892071,52.17985326151034],[5.118845097565795,52.17240647172821],[5.094889708331173,52.15534932844892],[5.120528814140698,52.14554134373186],[5.103397288938399,52.12984847359665],[5.087164489498142,52.135671631541626],[5.061204499134507,52.122561946206844],[5.047556039138068,52.12997264290705],[5.033675900871254,52.116716135248325],[5.012564161220965,52.12930141864264],[5.003101781076328,52.14205095653512],[4.973938332536511,52.129673612527085],[4.9700959246674365,52.122442033396055],[4.980227873667007,52.11224468957603],[4.973276733757355,52.101374391939615],[4.989326938220936,52.10075558605213],[4.994216458105903,52.09036674922649],[5.005010990455993,52.08848552653082],[4.99949796517619,52.06613166771703],[5.018010222198484,52.062219164980675],[5.010283404293154,52.05374121945355],[4.990329528861148,52.05246579352472],[4.983276465757524,52.040236877317376],[4.978378952621942,52.03972332313119],[4.983138845411744,52.02778473814674],[4.99404609348217,52.029740251427484],[4.995194549862632,52.02172055202113],[5.020295179724054,52.02562724534459],[5.034062564443209,52.00384606000366],[5.0425550454591415,52.00563567116294],[5.062637850060371,51.99123318293138],[5.03284862917476,51.969746270387674],[4.998073320003641,51.977871542153366],[4.968288373750094,51.95937709843853],[4.9398203327450725,51.96343985645145],[4.916379620548805,51.94317823128267],[4.87531802623732,51.93799131625661]]]}}]}